[{"OBJECT_NAME":"SWOT","OBJECT_ID":"2022-173A","EPOCH":"2026-03-09T21:08:58.320384","MEAN_MOTION":14.00169571,"ECCENTRICITY":5.296e-5,"INCLINATION":77.6121,"RA_OF_ASC_NODE":169.3626,"ARG_OF_PERICENTER":257.165,"MEAN_ANOMALY":102.9443,"EPHEMERIS_TYPE":0,"CLASSIFICATION_TYPE":"U","NORAD_CAT_ID":54754,"ELEMENT_SET_NO":999,"REV_AT_EPOCH":16525,"BSTAR":8.9304891e-5,"MEAN_MOTION_DOT":1.29e-6,"MEAN_MOTION_DDOT":0},{"OBJECT_NAME":"CZ-6A DEB","OBJECT_ID":"2022-151HU","EPOCH":"2026-03-09T20:51:47.106144","MEAN_MOTION":13.93355271,"ECCENTRICITY":0.01228704,"INCLINATION":98.9534,"RA_OF_ASC_NODE":48.0177,"ARG_OF_PERICENTER":0.7253,"MEAN_ANOMALY":359.4065,"EPHEMERIS_TYPE":0,"CLASSIFICATION_TYPE":"U","NORAD_CAT_ID":54492,"ELEMENT_SET_NO":999,"REV_AT_EPOCH":16844,"BSTAR":0.00020664835,"MEAN_MOTION_DOT":2.45e-6,"MEAN_MOTION_DDOT":0}]
